start=new Date('2023-02-12T00:00:00.000Z').valueOf();
sats=[{"CENTER_NAME":"EARTH","ELEMENT_SET_NO":"999","MEAN_ANOMALY":"271.3714","EPHEMERIS_TYPE":"0","RCS_SIZE":"LARGE","SEMIMAJOR_AXIS":"6925.303","ECCENTRICITY":"0.00013370","TLE_LINE1":"1 45542U 20025M   23042.58338369  .00002293  00000-0  17268-3 0  9998","NORAD_CAT_ID":"45542","CLASSIFICATION_TYPE":"U","FILE":"3786577","OBJECT_TYPE":"PAYLOAD","BSTAR":"0.00017268000000","INCLINATION":"53.0544","REF_FRAME":"TEME","REV_AT_EPOCH":"15596","PERIAPSIS":"546.243","GP_ID":"225180667","DECAY_DATE":null,"SITE":"AFETR","MEAN_MOTION_DOT":"0.00002293","LAUNCH_DATE":"2020-04-22","MEAN_MOTION_DDOT":"0.0000000000000","TIME_SYSTEM":"UTC","RA_OF_ASC_NODE":"103.9557","ARG_OF_PERICENTER":"88.7429","TLE_LINE2":"2 45542  53.0544 103.9557 0001337  88.7429 271.3714 15.06414720155966","APOAPSIS":"548.094","COUNTRY_CODE":"US","OBJECT_ID":"2020-025M","EPOCH":"2023-02-11T14:00:04.350816","OBJECT_NAME":"STARLINK-1371","PERIOD":"95.591","MEAN_MOTION":"15.06414720","MEAN_ELEMENT_THEORY":"SGP4"},{"MEAN_MOTION_DDOT":"0.0000000000000","TIME_SYSTEM":"UTC","LAUNCH_DATE":"2020-04-22","MEAN_MOTION_DOT":"0.00005228","APOAPSIS":"548.023","TLE_LINE2":"2 45543  53.0522 102.5910 0001185  68.1116 291.9999 15.06403561155107","COUNTRY_CODE":"US","OBJECT_ID":"2020-025N","ARG_OF_PERICENTER":"68.1116","RA_OF_ASC_NODE":"102.5910","PERIAPSIS":"546.382","SITE":"AFETR","DECAY_DATE":null,"GP_ID":"225180917","OBJECT_NAME":"STARLINK-1372","PERIOD":"95.592","MEAN_ELEMENT_THEORY":"SGP4","MEAN_MOTION":"15.06403561","EPOCH":"2023-02-11T21:15:20.031264","ECCENTRICITY":"0.00011850","SEMIMAJOR_AXIS":"6925.338","TLE_LINE1":"1 45543U 20025N   23042.88564851  .00005228  00000-0  36959-3 0  9998","NORAD_CAT_ID":"45543","CLASSIFICATION_TYPE":"U","CENTER_NAME":"EARTH","ELEMENT_SET_NO":"999","EPHEMERIS_TYPE":"0","RCS_SIZE":"LARGE","MEAN_ANOMALY":"291.9999","REF_FRAME":"TEME","REV_AT_EPOCH":"15510","OBJECT_TYPE":"PAYLOAD","FILE":"3786577","INCLINATION":"53.0522","BSTAR":"0.00036959000000"},{"MEAN_MOTION_DOT":"-0.00000211","LAUNCH_DATE":"2020-04-22","MEAN_MOTION_DDOT":"0.0000000000000","TIME_SYSTEM":"UTC","ARG_OF_PERICENTER":"80.9290","RA_OF_ASC_NODE":"104.6015","OBJECT_ID":"2020-025P","COUNTRY_CODE":"US","TLE_LINE2":"2 45544  53.0534 104.6015 0001561  80.9290 279.1875 15.06394603155942","APOAPSIS":"548.311","PERIAPSIS":"546.149","GP_ID":"225181168","DECAY_DATE":null,"SITE":"AFETR","PERIOD":"95.592","OBJECT_NAME":"STARLINK-1373","MEAN_MOTION":"15.06394603","MEAN_ELEMENT_THEORY":"SGP4","EPOCH":"2023-02-11T10:33:05.956128","SEMIMAJOR_AXIS":"6925.365","ECCENTRICITY":"0.00015610","TLE_LINE1":"1 45544U 20025P   23042.43965227 -.00000211  00000-0  47294-5 0  9996","CLASSIFICATION_TYPE":"U","NORAD_CAT_ID":"45544","ELEMENT_SET_NO":"999","CENTER_NAME":"EARTH","MEAN_ANOMALY":"279.1875","RCS_SIZE":"LARGE","EPHEMERIS_TYPE":"0","REV_AT_EPOCH":"15594","REF_FRAME":"TEME","FILE":"3786577","OBJECT_TYPE":"PAYLOAD","BSTAR":"0.00000472940000","INCLINATION":"53.0534"},{"NORAD_CAT_ID":"45545","TLE_LINE1":"1 45545U 20025Q   23042.85616450  .00035692  00000-0  24022-2 0  9995","CLASSIFICATION_TYPE":"U","SEMIMAJOR_AXIS":"6925.313","ECCENTRICITY":"0.00015470","MEAN_ANOMALY":"270.9059","RCS_SIZE":"LARGE","EPHEMERIS_TYPE":"0","ELEMENT_SET_NO":"999","CENTER_NAME":"EARTH","REV_AT_EPOCH":"15598","REF_FRAME":"TEME","BSTAR":"0.00240220000000","INCLINATION":"53.0521","FILE":"3786577","OBJECT_TYPE":"PAYLOAD","ARG_OF_PERICENTER":"89.2107","RA_OF_ASC_NODE":"102.7243","COUNTRY_CODE":"US","OBJECT_ID":"2020-025Q","APOAPSIS":"548.250","TLE_LINE2":"2 45545  53.0521 102.7243 0001547  89.2107 270.9059 15.06411531155981","MEAN_MOTION_DOT":"0.00035692","LAUNCH_DATE":"2020-04-22","MEAN_MOTION_DDOT":"0.0000000000000","TIME_SYSTEM":"UTC","GP_ID":"225181919","DECAY_DATE":null,"SITE":"AFETR","PERIAPSIS":"546.107","MEAN_MOTION":"15.06411531","MEAN_ELEMENT_THEORY":"SGP4","PERIOD":"95.591","OBJECT_NAME":"STARLINK-1374","EPOCH":"2023-02-11T20:32:52.612800"},{"EPOCH":"2023-02-11T20:48:47.690496","MEAN_ELEMENT_THEORY":"SGP4","MEAN_MOTION":"15.06398819","OBJECT_NAME":"STARLINK-1375","PERIOD":"95.592","SITE":"AFETR","GP_ID":"225180167","DECAY_DATE":null,"PERIAPSIS":"546.185","APOAPSIS":"548.250","TLE_LINE2":"2 45546  53.0549 102.6757 0001491  81.1856 278.9301 15.06398819156006","COUNTRY_CODE":"US","OBJECT_ID":"2020-025R","ARG_OF_PERICENTER":"81.1856","RA_OF_ASC_NODE":"102.6757","MEAN_MOTION_DDOT":"0.0000000000000","TIME_SYSTEM":"UTC","LAUNCH_DATE":"2020-04-22","MEAN_MOTION_DOT":"0.00003285","INCLINATION":"53.0549","BSTAR":"0.00023935000000","OBJECT_TYPE":"PAYLOAD","FILE":"3786577","REF_FRAME":"TEME","REV_AT_EPOCH":"15600","EPHEMERIS_TYPE":"0","RCS_SIZE":"LARGE","MEAN_ANOMALY":"278.9301","CENTER_NAME":"EARTH","ELEMENT_SET_NO":"999","CLASSIFICATION_TYPE":"U","TLE_LINE1":"1 45546U 20025R   23042.86721864  .00003285  00000-0  23935-3 0  9999","NORAD_CAT_ID":"45546","ECCENTRICITY":"0.00014910","SEMIMAJOR_AXIS":"6925.352"},{"RCS_SIZE":"LARGE","EPHEMERIS_TYPE":"0","MEAN_ANOMALY":"256.9701","ELEMENT_SET_NO":"999","CENTER_NAME":"EARTH","TLE_LINE1":"1 45547U 20025S   23042.86353145  .00002985  00000-0  21922-3 0  9993","NORAD_CAT_ID":"45547","CLASSIFICATION_TYPE":"U","ECCENTRICITY":"0.00016370","SEMIMAJOR_AXIS":"6925.345","INCLINATION":"53.0518","BSTAR":"0.00021922000000","OBJECT_TYPE":"PAYLOAD","FILE":"3786577","REV_AT_EPOCH":"15601","REF_FRAME":"TEME","SITE":"AFETR","GP_ID":"225180417","DECAY_DATE":null,"PERIAPSIS":"546.076","COUNTRY_CODE":"US","OBJECT_ID":"2020-025S","TLE_LINE2":"2 45547  53.0518 102.6971 0001637 103.1470 256.9701 15.06401215156016","APOAPSIS":"548.344","ARG_OF_PERICENTER":"103.1470","RA_OF_ASC_NODE":"102.6971","TIME_SYSTEM":"UTC","MEAN_MOTION_DDOT":"0.0000000000000","LAUNCH_DATE":"2020-04-22","MEAN_MOTION_DOT":"0.00002985","EPOCH":"2023-02-11T20:43:29.117280","MEAN_ELEMENT_THEORY":"SGP4","MEAN_MOTION":"15.06401215","PERIOD":"95.592","OBJECT_NAME":"STARLINK-1377"},{"PERIAPSIS":"546.193","DECAY_DATE":null,"GP_ID":"225181669","SITE":"AFETR","MEAN_MOTION_DOT":"0.00000615","LAUNCH_DATE":"2020-04-22","TIME_SYSTEM":"UTC","MEAN_MOTION_DDOT":"0.0000000000000","ARG_OF_PERICENTER":"60.0989","RA_OF_ASC_NODE":"102.5767","COUNTRY_CODE":"US","OBJECT_ID":"2020-025T","APOAPSIS":"548.256","TLE_LINE2":"2 45548  53.0544 102.5767 0001490  60.0989 300.0148 15.06396403156008","EPOCH":"2023-02-11T21:20:38.629536","PERIOD":"95.592","OBJECT_NAME":"STARLINK-1378","MEAN_MOTION":"15.06396403","MEAN_ELEMENT_THEORY":"SGP4","ELEMENT_SET_NO":"999","CENTER_NAME":"EARTH","MEAN_ANOMALY":"300.0148","RCS_SIZE":"LARGE","EPHEMERIS_TYPE":"0","SEMIMAJOR_AXIS":"6925.360","ECCENTRICITY":"0.00014900","CLASSIFICATION_TYPE":"U","TLE_LINE1":"1 45548U 20025T   23042.88933599  .00000615  00000-0  60188-4 0  9999","NORAD_CAT_ID":"45548","FILE":"3786577","OBJECT_TYPE":"PAYLOAD","BSTAR":"0.00006018800000","INCLINATION":"53.0544","REV_AT_EPOCH":"15600","REF_FRAME":"TEME"},{"EPOCH":"2023-02-11T15:23:39.677280","OBJECT_NAME":"STARLINK-1390","PERIOD":"95.591","MEAN_ELEMENT_THEORY":"SGP4","MEAN_MOTION":"15.06414700","PERIAPSIS":"545.878","SITE":"AFETR","DECAY_DATE":null,"GP_ID":"225181419","MEAN_MOTION_DDOT":"0.0000000000000","TIME_SYSTEM":"UTC","MEAN_MOTION_DOT":"0.00021476","LAUNCH_DATE":"2020-04-22","APOAPSIS":"548.459","TLE_LINE2":"2 45550  53.0542 103.6854 0001863  83.9304 276.1897 15.06414700155966","COUNTRY_CODE":"US","OBJECT_ID":"2020-025V","ARG_OF_PERICENTER":"83.9304","RA_OF_ASC_NODE":"103.6854","OBJECT_TYPE":"PAYLOAD","FILE":"3786577","INCLINATION":"53.0542","BSTAR":"0.00145570000000","REF_FRAME":"TEME","REV_AT_EPOCH":"15596","CENTER_NAME":"EARTH","ELEMENT_SET_NO":"999","EPHEMERIS_TYPE":"0","RCS_SIZE":"LARGE","MEAN_ANOMALY":"276.1897","ECCENTRICITY":"0.00018630","SEMIMAJOR_AXIS":"6925.304","CLASSIFICATION_TYPE":"U","TLE_LINE1":"1 45550U 20025V   23042.64143145  .00021476  00000-0  14557-2 0  9991","NORAD_CAT_ID":"45550"},{"MEAN_MOTION":"15.06397858","MEAN_ELEMENT_THEORY":"SGP4","PERIOD":"95.592","OBJECT_NAME":"STARLINK-1294","EPOCH":"2023-02-11T20:14:17.634624","RA_OF_ASC_NODE":"82.7939","ARG_OF_PERICENTER":"97.7086","OBJECT_ID":"2020-025W","COUNTRY_CODE":"US","APOAPSIS":"548.111","TLE_LINE2":"2 45551  53.0528  82.7939 0001287  97.7086 262.4049 15.06397858156289","MEAN_MOTION_DOT":"-0.00000431","LAUNCH_DATE":"2020-04-22","MEAN_MOTION_DDOT":"0.0000000000000","TIME_SYSTEM":"UTC","GP_ID":"225180668","DECAY_DATE":null,"SITE":"AFETR","PERIAPSIS":"546.329","REV_AT_EPOCH":"15628","REF_FRAME":"TEME","BSTAR":"-0.00001005300000","INCLINATION":"53.0528","FILE":"3786577","OBJECT_TYPE":"PAYLOAD","TLE_LINE1":"1 45551U 20025W   23042.84325966 -.00000431  00000-0 -10053-4 0  9996","CLASSIFICATION_TYPE":"U","NORAD_CAT_ID":"45551","SEMIMAJOR_AXIS":"6925.355","ECCENTRICITY":"0.00012870","MEAN_ANOMALY":"262.4049","RCS_SIZE":"LARGE","EPHEMERIS_TYPE":"0","ELEMENT_SET_NO":"999","CENTER_NAME":"EARTH"},{"TLE_LINE2":"2 45553  53.0536  84.8252 0001718  89.6017 270.5169 15.06397366154920","APOAPSIS":"548.411","OBJECT_ID":"2020-025Y","COUNTRY_CODE":"US","RA_OF_ASC_NODE":"84.8252","ARG_OF_PERICENTER":"89.6017","MEAN_MOTION_DDOT":"0.0000000000000","TIME_SYSTEM":"UTC","LAUNCH_DATE":"2020-04-22","MEAN_MOTION_DOT":"0.00001576","SITE":"AFETR","GP_ID":"225180918","DECAY_DATE":null,"PERIAPSIS":"546.032","MEAN_ELEMENT_THEORY":"SGP4","MEAN_MOTION":"15.06397366","OBJECT_NAME":"STARLINK-1323","PERIOD":"95.592","EPOCH":"2023-02-11T09:21:26.555616","CLASSIFICATION_TYPE":"U","TLE_LINE1":"1 45553U 20025Y   23042.38989069  .00001576  00000-0  12472-3 0  9992","NORAD_CAT_ID":"45553","ECCENTRICITY":"0.00017180","SEMIMAJOR_AXIS":"6925.357","EPHEMERIS_TYPE":"0","RCS_SIZE":"LARGE","MEAN_ANOMALY":"270.5169","CENTER_NAME":"EARTH","ELEMENT_SET_NO":"999","REF_FRAME":"TEME","REV_AT_EPOCH":"15492","INCLINATION":"53.0536","BSTAR":"0.00012472000000","OBJECT_TYPE":"PAYLOAD","FILE":"3786577"}];
